[{"OBJECT_NAME":"GAOFEN-11 03","OBJECT_ID":"2021-107A","EPOCH":"2026-03-09T22:48:17.334432","MEAN_MOTION":15.23762465,"ECCENTRICITY":0.00095153,"INCLINATION":97.2228,"RA_OF_ASC_NODE":116.8716,"ARG_OF_PERICENTER":54.6956,"MEAN_ANOMALY":305.517,"EPHEMERIS_TYPE":0,"CLASSIFICATION_TYPE":"U","NORAD_CAT_ID":49492,"ELEMENT_SET_NO":999,"REV_AT_EPOCH":23952,"BSTAR":0.00031083054,"MEAN_MOTION_DOT":7.418e-5,"MEAN_MOTION_DDOT":0},{"OBJECT_NAME":"COSMOS 252 DEB","OBJECT_ID":"1968-097B","EPOCH":"2026-03-09T10:29:22.750368","MEAN_MOTION":14.64880357,"ECCENTRICITY":0.02642735,"INCLINATION":62.2999,"RA_OF_ASC_NODE":172.6059,"ARG_OF_PERICENTER":317.7901,"MEAN_ANOMALY":40.309,"EPHEMERIS_TYPE":0,"CLASSIFICATION_TYPE":"U","NORAD_CAT_ID":3549,"ELEMENT_SET_NO":999,"REV_AT_EPOCH":85541,"BSTAR":0.00099258147,"MEAN_MOTION_DOT":8.753e-5,"MEAN_MOTION_DDOT":0}]
